[{"OBJECT_NAME":"STARLINK-37072","OBJECT_ID":"2026-049M","EPOCH":"2026-04-02T20:00:01.999008","MEAN_MOTION":15.7522753,"ECCENTRICITY":0.0001371,"INCLINATION":97.2855,"RA_OF_ASC_NODE":113.303,"ARG_OF_PERICENTER":92.3993,"MEAN_ANOMALY":172.1724,"EPHEMERIS_TYPE":0,"CLASSIFICATION_TYPE":"U","NORAD_CAT_ID":68153,"ELEMENT_SET_NO":999,"REV_AT_EPOCH":450,"BSTAR":-0.0010299,"MEAN_MOTION_DOT":-0.00151313,"MEAN_MOTION_DDOT":0},{"OBJECT_NAME":"STARLINK-36241","OBJECT_ID":"2026-049N","EPOCH":"2026-04-02T19:10:07.260960","MEAN_MOTION":15.75265342,"ECCENTRICITY":0.0001568,"INCLINATION":97.285,"RA_OF_ASC_NODE":113.2349,"ARG_OF_PERICENTER":91.6863,"MEAN_ANOMALY":268.4582,"EPHEMERIS_TYPE":0,"CLASSIFICATION_TYPE":"U","NORAD_CAT_ID":68154,"ELEMENT_SET_NO":999,"REV_AT_EPOCH":321,"BSTAR":0.001199,"MEAN_MOTION_DOT":0.00183194,"MEAN_MOTION_DDOT":0},{"OBJECT_NAME":"STARLINK-37048","OBJECT_ID":"2026-049P","EPOCH":"2026-04-02T20:03:26.684064","MEAN_MOTION":15.80911425,"ECCENTRICITY":0.0001409,"INCLINATION":97.2842,"RA_OF_ASC_NODE":113.3381,"ARG_OF_PERICENTER":117.5483,"MEAN_ANOMALY":242.5929,"EPHEMERIS_TYPE":0,"CLASSIFICATION_TYPE":"U","NORAD_CAT_ID":68155,"ELEMENT_SET_NO":999,"REV_AT_EPOCH":322,"BSTAR":0.0007976,"MEAN_MOTION_DOT":0.00156079,"MEAN_MOTION_DDOT":0},{"OBJECT_NAME":"STARLINK-36313","OBJECT_ID":"2026-049Q","EPOCH":"2026-04-02T20:04:31.843488","MEAN_MOTION":15.8090433,"ECCENTRICITY":0.0001332,"INCLINATION":97.2846,"RA_OF_ASC_NODE":113.3364,"ARG_OF_PERICENTER":100.9335,"MEAN_ANOMALY":259.2083,"EPHEMERIS_TYPE":0,"CLASSIFICATION_TYPE":"U","NORAD_CAT_ID":68156,"ELEMENT_SET_NO":999,"REV_AT_EPOCH":322,"BSTAR":0.00087628,"MEAN_MOTION_DOT":0.00171744,"MEAN_MOTION_DDOT":0},{"OBJECT_NAME":"STARLINK-37064","OBJECT_ID":"2026-049R","EPOCH":"2026-04-02T20:06:41.451264","MEAN_MOTION":15.80935655,"ECCENTRICITY":0.0001263,"INCLINATION":97.2846,"RA_OF_ASC_NODE":113.3353,"ARG_OF_PERICENTER":75.7753,"MEAN_ANOMALY":284.3656,"EPHEMERIS_TYPE":0,"CLASSIFICATION_TYPE":"U","NORAD_CAT_ID":68157,"ELEMENT_SET_NO":999,"REV_AT_EPOCH":322,"BSTAR":0.0011164,"MEAN_MOTION_DOT":0.00220387,"MEAN_MOTION_DDOT":0},{"OBJECT_NAME":"STARLINK-37069","OBJECT_ID":"2026-049S","EPOCH":"2026-04-02T19:05:02.242176","MEAN_MOTION":15.75261129,"ECCENTRICITY":0.0001362,"INCLINATION":97.2852,"RA_OF_ASC_NODE":113.2401,"ARG_OF_PERICENTER":78.9251,"MEAN_ANOMALY":281.2168,"EPHEMERIS_TYPE":0,"CLASSIFICATION_TYPE":"U","NORAD_CAT_ID":68158,"ELEMENT_SET_NO":999,"REV_AT_EPOCH":321,"BSTAR":0.0010297,"MEAN_MOTION_DOT":0.00156795,"MEAN_MOTION_DDOT":0},{"OBJECT_NAME":"STARLINK-37053","OBJECT_ID":"2026-049T","EPOCH":"2026-04-02T20:00:23.802048","MEAN_MOTION":15.79899945,"ECCENTRICITY":7.79e-5,"INCLINATION":97.284,"RA_OF_ASC_NODE":113.3401,"ARG_OF_PERICENTER":104.5346,"MEAN_ANOMALY":255.6008,"EPHEMERIS_TYPE":0,"CLASSIFICATION_TYPE":"U","NORAD_CAT_ID":68159,"ELEMENT_SET_NO":999,"REV_AT_EPOCH":322,"BSTAR":-0.0047196,"MEAN_MOTION_DOT":-0.00792257,"MEAN_MOTION_DDOT":0},{"OBJECT_NAME":"STARLINK-36306","OBJECT_ID":"2026-049U","EPOCH":"2026-04-02T18:59:26.592000","MEAN_MOTION":15.75345798,"ECCENTRICITY":0.000117,"INCLINATION":97.2849,"RA_OF_ASC_NODE":113.2456,"ARG_OF_PERICENTER":103.7166,"MEAN_ANOMALY":256.423,"EPHEMERIS_TYPE":0,"CLASSIFICATION_TYPE":"U","NORAD_CAT_ID":68160,"ELEMENT_SET_NO":999,"REV_AT_EPOCH":321,"BSTAR":0.002383,"MEAN_MOTION_DOT":0.00373842,"MEAN_MOTION_DDOT":0},{"OBJECT_NAME":"STARLINK-37057","OBJECT_ID":"2026-049V","EPOCH":"2026-04-02T20:02:21.826176","MEAN_MOTION":15.80890461,"ECCENTRICITY":0.0001592,"INCLINATION":97.2843,"RA_OF_ASC_NODE":113.3389,"ARG_OF_PERICENTER":106.083,"MEAN_ANOMALY":254.0613,"EPHEMERIS_TYPE":0,"CLASSIFICATION_TYPE":"U","NORAD_CAT_ID":68161,"ELEMENT_SET_NO":999,"REV_AT_EPOCH":322,"BSTAR":0.00050125,"MEAN_MOTION_DOT":0.0009728,"MEAN_MOTION_DDOT":0},{"OBJECT_NAME":"STARLINK-37013","OBJECT_ID":"2026-049W","EPOCH":"2026-04-02T19:54:49.454784","MEAN_MOTION":15.80878708,"ECCENTRICITY":0.000116,"INCLINATION":97.2847,"RA_OF_ASC_NODE":113.3453,"ARG_OF_PERICENTER":84.9697,"MEAN_ANOMALY":275.1703,"EPHEMERIS_TYPE":0,"CLASSIFICATION_TYPE":"U","NORAD_CAT_ID":68162,"ELEMENT_SET_NO":999,"REV_AT_EPOCH":322,"BSTAR":0.0014674,"MEAN_MOTION_DOT":0.0029137,"MEAN_MOTION_DDOT":0},{"OBJECT_NAME":"STARLINK-36958","OBJECT_ID":"2026-049X","EPOCH":"2026-04-02T20:00:01.999008","MEAN_MOTION":15.75187954,"ECCENTRICITY":0.0001194,"INCLINATION":97.2839,"RA_OF_ASC_NODE":113.3406,"ARG_OF_PERICENTER":81.7587,"MEAN_ANOMALY":272.7711,"EPHEMERIS_TYPE":0,"CLASSIFICATION_TYPE":"U","NORAD_CAT_ID":68163,"ELEMENT_SET_NO":999,"REV_AT_EPOCH":450,"BSTAR":-0.00041307,"MEAN_MOTION_DOT":-0.00061295,"MEAN_MOTION_DDOT":0},{"OBJECT_NAME":"STARLINK-37002","OBJECT_ID":"2026-049Y","EPOCH":"2026-04-02T19:58:02.027424","MEAN_MOTION":15.80902074,"ECCENTRICITY":0.0001794,"INCLINATION":97.2837,"RA_OF_ASC_NODE":113.3424,"ARG_OF_PERICENTER":123.572,"MEAN_ANOMALY":236.572,"EPHEMERIS_TYPE":0,"CLASSIFICATION_TYPE":"U","NORAD_CAT_ID":68164,"ELEMENT_SET_NO":999,"REV_AT_EPOCH":322,"BSTAR":0.00064339,"MEAN_MOTION_DOT":0.00125379,"MEAN_MOTION_DDOT":0},{"OBJECT_NAME":"STARLINK-36971","OBJECT_ID":"2026-049Z","EPOCH":"2026-04-02T20:00:01.999008","MEAN_MOTION":15.75298548,"ECCENTRICITY":0.0001379,"INCLINATION":97.2848,"RA_OF_ASC_NODE":113.3262,"ARG_OF_PERICENTER":115.7476,"MEAN_ANOMALY":202.773,"EPHEMERIS_TYPE":0,"CLASSIFICATION_TYPE":"U","NORAD_CAT_ID":68165,"ELEMENT_SET_NO":999,"REV_AT_EPOCH":450,"BSTAR":-0.0015288,"MEAN_MOTION_DOT":-0.00223364,"MEAN_MOTION_DDOT":0},{"OBJECT_NAME":"STARLINK-36273","OBJECT_ID":"2026-049AA","EPOCH":"2026-04-02T18:58:25.457952","MEAN_MOTION":15.75255646,"ECCENTRICITY":0.0001198,"INCLINATION":97.2849,"RA_OF_ASC_NODE":113.2463,"ARG_OF_PERICENTER":79.2084,"MEAN_ANOMALY":280.9316,"EPHEMERIS_TYPE":0,"CLASSIFICATION_TYPE":"U","NORAD_CAT_ID":68166,"ELEMENT_SET_NO":999,"REV_AT_EPOCH":321,"BSTAR":0.00066477,"MEAN_MOTION_DOT":0.00100484,"MEAN_MOTION_DDOT":0},{"OBJECT_NAME":"STARLINK-36969","OBJECT_ID":"2026-050A","EPOCH":"2026-04-02T15:34:42.135456","MEAN_MOTION":15.8099266,"ECCENTRICITY":0.0001061,"INCLINATION":53.1576,"RA_OF_ASC_NODE":161.7674,"ARG_OF_PERICENTER":67.0659,"MEAN_ANOMALY":293.0476,"EPHEMERIS_TYPE":0,"CLASSIFICATION_TYPE":"U","NORAD_CAT_ID":68167,"ELEMENT_SET_NO":999,"REV_AT_EPOCH":426,"BSTAR":0.0011271,"MEAN_MOTION_DOT":0.00229023,"MEAN_MOTION_DDOT":0},{"OBJECT_NAME":"STARLINK-36984","OBJECT_ID":"2026-050B","EPOCH":"2026-04-02T15:33:37.413216","MEAN_MOTION":15.80987454,"ECCENTRICITY":0.0001,"INCLINATION":53.1576,"RA_OF_ASC_NODE":161.7622,"ARG_OF_PERICENTER":91.6042,"MEAN_ANOMALY":268.5095,"EPHEMERIS_TYPE":0,"CLASSIFICATION_TYPE":"U","NORAD_CAT_ID":68168,"ELEMENT_SET_NO":999,"REV_AT_EPOCH":426,"BSTAR":0.0011585,"MEAN_MOTION_DOT":0.00235534,"MEAN_MOTION_DDOT":0},{"OBJECT_NAME":"STARLINK-37077","OBJECT_ID":"2026-050C","EPOCH":"2026-04-02T15:32:32.587296","MEAN_MOTION":15.81005417,"ECCENTRICITY":9.94e-5,"INCLINATION":53.1578,"RA_OF_ASC_NODE":161.757,"ARG_OF_PERICENTER":64.275,"MEAN_ANOMALY":295.8376,"EPHEMERIS_TYPE":0,"CLASSIFICATION_TYPE":"U","NORAD_CAT_ID":68169,"ELEMENT_SET_NO":999,"REV_AT_EPOCH":426,"BSTAR":0.0014097,"MEAN_MOTION_DOT":0.00288796,"MEAN_MOTION_DDOT":0}]
